{
  "links" : {
    "next" : "https://api.nasa.gov/neo/rest/v1/feed?start_date=1999-05-16&end_date=1999-05-16&detailed=true&api_key=t0TVs3DtDT2H8Oy2Zy8m2eVrNsAVKAexjcZXUckd",
    "prev" : "https://api.nasa.gov/neo/rest/v1/feed?start_date=1999-05-14&end_date=1999-05-14&detailed=true&api_key=t0TVs3DtDT2H8Oy2Zy8m2eVrNsAVKAexjcZXUckd",
    "self" : "https://api.nasa.gov/neo/rest/v1/feed?start_date=1999-05-15&end_date=1999-05-15&detailed=true&api_key=t0TVs3DtDT2H8Oy2Zy8m2eVrNsAVKAexjcZXUckd"
  },
  "element_count" : 1,
  "near_earth_objects" : {
    "1999-05-15" : [ {
      "links" : {
        "self" : "https://api.nasa.gov/neo/rest/v1/neo/2433960?api_key=t0TVs3DtDT2H8Oy2Zy8m2eVrNsAVKAexjcZXUckd"
      },
      "neo_reference_id" : "2433960",
      "name" : "433960 (1999 JU6)",
      "nasa_jpl_url" : "http://ssd.jpl.nasa.gov/sbdb.cgi?sstr=2433960",
      "absolute_magnitude_h" : 19.7,
      "estimated_diameter" : {
        "kilometers" : {
          "estimated_diameter_min" : 0.3051792326,
          "estimated_diameter_max" : 0.6824015094
        },
        "meters" : {
          "estimated_diameter_min" : 305.1792325939,
          "estimated_diameter_max" : 682.4015094011
        },
        "miles" : {
          "estimated_diameter_min" : 0.1896295249,
          "estimated_diameter_max" : 0.4240245083
        },
        "feet" : {
          "estimated_diameter_min" : 1001.2442334633,
          "estimated_diameter_max" : 2238.8501681036
        }
      },
      "is_potentially_hazardous_asteroid" : false,
      "close_approach_data" : [ {
        "close_approach_date" : "1999-05-15",
        "epoch_date_close_approach" : 926751600000,
        "relative_velocity" : {
          "kilometers_per_second" : "11.7087137265",
          "kilometers_per_hour" : "42151.3694154893",
          "miles_per_hour" : "26191.2217348633"
        },
        "miss_distance" : {
          "astronomical" : "0.2745877651",
          "lunar" : "106.8146362305",
          "kilometers" : "41077744",
          "miles" : "25524526"
        },
        "orbiting_body" : "Earth"
      } ],
      "orbital_data" : {
        "orbit_id" : "39",
        "orbit_determination_date" : "2017-04-06 09:20:51",
        "orbit_uncertainty" : "0",
        "minimum_orbit_intersection" : ".275198",
        "jupiter_tisserand_invariant" : "4.504",
        "epoch_osculation" : "2458000.5",
        "eccentricity" : ".2006710612827765",
        "semi_major_axis" : "1.469251015696214",
        "inclination" : "22.45791894407159",
        "ascending_node_longitude" : "220.1741875600833",
        "orbital_period" : "650.4926987036953",
        "perihelion_distance" : "1.174414855085658",
        "perihelion_argument" : "69.07531540493522",
        "aphelion_distance" : "1.764087176306771",
        "perihelion_time" : "2457886.082273135436",
        "mean_anomaly" : "63.32182014237427",
        "mean_motion" : ".553426657543443",
        "equinox" : "J2000"
      }
    } ]
  }
}